KUIPER-00035            
1 63748U 25088AA  25232.91670139  .00006067  00000+0  82611-3 0  9990
2 63748  51.8998 281.9174 0006093 131.5474  95.7682 14.79824614  5834
KUIPER-00037            
1 63749U 25088AB  25232.91670139  .00008237  00000+0  11084-2 0  9997
2 63749  51.8986 280.8839 0007026  76.7286 143.9833 14.79914548  3878
KUIPER-00038            
1 63750U 25088AC  25232.91670139  .00024351  00000+0  13013-2 0  9998
2 63750  51.8836 268.9272 0007383 130.8582 280.2255 15.14939736  3104
KUIPER-00039            
1 64500U 25134A   25232.91670139 -.00482536  00000+0 -15969-1 0  9990
2 64500  51.8695  49.3194 0007259 321.6818  11.8365 15.32781394  5780
KUIPER-00040            
1 64501U 25134B   25232.91670139  .00031753  00000+0  24132-2 0  9993
2 64501  51.8873  53.5999 0016029 333.6106   3.1620 15.01784312  5065
KUIPER-00041            
1 64502U 25134C   25232.91670139  .00022326  00000+0  19392-2 0  9992
2 64502  51.8881  54.3679 0014636 323.0732 310.1293 14.96849670  5552
KUIPER-00042            
1 64503U 25134D   25232.91670139  .00050733  00000+0  29381-2 0  9995
2 64503  51.8804  52.1227 0011947 333.3896  58.2244 15.11666289  5917
KUIPER-00043            
1 64504U 25134E   25232.75863591 -.00196650  00000+0 -71037-2 0  9990
2 64504  51.8741  50.4748 0008084 322.7806  37.2616 15.28731215 10194
